[
    {
        "Altitude(m)": 617719.7224924653,
        "Argument of Periapsis(deg)": 0.0,
        "Eccentricity": 0.0,
        "Inclination(deg)": 60.0,
        "Latitude(deg)": -41.10250894016129,
        "Longitude(deg)": 125.09458828418546,
        "Mean Anomaly(deg)": 229.09090000000003,
        "RAAN(deg)": 15.0,
        "Satellite Name": "Test1 80",
        "Satellite Number": 80,
        "Semi-Major Axis(m)": 6980739.136638005,
        "Time(s)": 0
    },
    {
        "Altitude(m)": 617911.2585181294,
        "Argument of Periapsis(deg)": 0.00010418945913296404,
        "Eccentricity": 0.0,
        "Inclination(deg)": 60.0,
        "Latitude(deg)": -41.56570153063154,
        "Longitude(deg)": 125.59899285266864,
        "Mean Anomaly(deg)": 229.71100614546188,
        "RAAN(deg)": 14.999579950860259,
        "Satellite Name": "Test1 80",
        "Satellite Number": 80,
        "Semi-Major Axis(m)": 6980739.136638005,
        "Time(s)": 10
    },
    {
        "Altitude(m)": 618101.6693385211,
        "Argument of Periapsis(deg)": 0.0002083789182659281,
        "Eccentricity": 0.0,
        "Inclination(deg)": 60.0,
        "Latitude(deg)": -42.02621563626375,
        "Longitude(deg)": 126.11120475241066,
        "Mean Anomaly(deg)": 230.3311122909237,
        "RAAN(deg)": 14.999159901720514,
        "Satellite Name": "Test1 80",
        "Satellite Number": 80,
        "Semi-Major Axis(m)": 6980739.136638005,
        "Time(s)": 20
    },
    {
        "Altitude(m)": 618290.881926251,
        "Argument of Periapsis(deg)": 0.00031256837739889213,
        "Eccentricity": 0.0,
        "Inclination(deg)": 60.0,
        "Latitude(deg)": -42.48397101094949,
        "Longitude(deg)": 126.63141866764876,
        "Mean Anomaly(deg)": 230.95121843638552,
        "RAAN(deg)": 14.99873985258077,
        "Satellite Name": "Test1 80",
        "Satellite Number": 80,
        "Semi-Major Axis(m)": 6980739.136638005,
        "Time(s)": 30
    },
    {
        "Altitude(m)": 618478.8236311364,
        "Argument of Periapsis(deg)": 0.0004167578365318562,
        "Eccentricity": 0.0,
        "Inclination(deg)": 60.0,
        "Latitude(deg)": -42.938884883547715,
        "Longitude(deg)": 127.15983307629625,
        "Mean Anomaly(deg)": 231.57132458184736,
        "RAAN(deg)": 14.998319803441028,
        "Satellite Name": "Test1 80",
        "Satellite Number": 80,
        "Semi-Major Axis(m)": 6980739.136638005,
        "Time(s)": 40
    },
    {
        "Altitude(m)": 618665.4222118573,
        "Argument of Periapsis(deg)": 0.0005209472956648203,
        "Eccentricity": 0.0,
        "Inclination(deg)": 60.0,
        "Latitude(deg)": -43.39087187977204,
        "Longitude(deg)": 127.69664915203218,
        "Mean Anomaly(deg)": 232.19143072730915,
        "RAAN(deg)": 14.997899754301287,
        "Satellite Name": "Test1 80",
        "Satellite Number": 80,
        "Semi-Major Axis(m)": 6980739.136638005,
        "Time(s)": 50
    },
    {
        "Altitude(m)": 618850.6058673926,
        "Argument of Periapsis(deg)": 0.0006251367547977843,
        "Eccentricity": 0.0,
        "Inclination(deg)": 60.0,
        "Latitude(deg)": -43.83984394343739,
        "Longitude(deg)": 128.24207115951032,
        "Mean Anomaly(deg)": 232.811536872771,
        "RAAN(deg)": 14.997479705161544,
        "Satellite Name": "Test1 80",
        "Satellite Number": 80,
        "Semi-Major Axis(m)": 6980739.136638005,
        "Time(s)": 60
    },
    {
        "Altitude(m)": 619034.3032682792,
        "Argument of Periapsis(deg)": 0.0007293262139307483,
        "Eccentricity": 0.0,
        "Inclination(deg)": 60.0,
        "Latitude(deg)": -44.28571025729841,
        "Longitude(deg)": 128.79630682795244,
        "Mean Anomaly(deg)": 233.43164301823282,
        "RAAN(deg)": 14.997059656021802,
        "Satellite Name": "Test1 80",
        "Satellite Number": 80,
        "Semi-Major Axis(m)": 6980739.136638005,
        "Time(s)": 70
    },
    {
        "Altitude(m)": 619216.443587594,
        "Argument of Periapsis(deg)": 0.0008335156730637124,
        "Eccentricity": 0.0,
        "Inclination(deg)": 60.0,
        "Latitude(deg)": -44.72837716374375,
        "Longitude(deg)": 129.35956618826626,
        "Mean Anomaly(deg)": 234.05174916369467,
        "RAAN(deg)": 14.996639606882056,
        "Satellite Name": "Test1 80",
        "Satellite Number": 80,
        "Semi-Major Axis(m)": 6980739.136638005,
        "Time(s)": 80
    },
    {
        "Altitude(m)": 619396.9565317372,
        "Argument of Periapsis(deg)": 0.0009377051321966765,
        "Eccentricity": 0.0,
        "Inclination(deg)": 60.0,
        "Latitude(deg)": -45.16774808565028,
        "Longitude(deg)": 129.9320618973252,
        "Mean Anomaly(deg)": 234.67185530915646,
        "RAAN(deg)": 14.996219557742315,
        "Satellite Name": "Test1 80",
        "Satellite Number": 80,
        "Semi-Major Axis(m)": 6980739.136638005,
        "Time(s)": 90
    },
    {
        "Altitude(m)": 619575.7723709351,
        "Argument of Periapsis(deg)": 0.0010418945913296407,
        "Eccentricity": 0.0,
        "Inclination(deg)": 60.0,
        "Latitude(deg)": -45.6037234477409,
        "Longitude(deg)": 130.51400953431602,
        "Mean Anomaly(deg)": 235.2919614546183,
        "RAAN(deg)": 14.995799508602571,
        "Satellite Name": "Test1 80",
        "Satellite Number": 80,
        "Semi-Major Axis(m)": 6980739.136638005,
        "Time(s)": 100
    },
    {
        "Altitude(m)": 619752.8219694578,
        "Argument of Periapsis(deg)": 0.0011460840504626045,
        "Eccentricity": 0.0,
        "Inclination(deg)": 60.0,
        "Latitude(deg)": -46.036200598826014,
        "Longitude(deg)": 131.10562635393615,
        "Mean Anomaly(deg)": 235.91206760008015,
        "RAAN(deg)": 14.99537945946283,
        "Satellite Name": "Test1 80",
        "Satellite Number": 80,
        "Semi-Major Axis(m)": 6980739.136638005,
        "Time(s)": 110
    },
    {
        "Altitude(m)": 619928.0368156016,
        "Argument of Periapsis(deg)": 0.0012502735095955685,
        "Eccentricity": 0.0,
        "Inclination(deg)": 60.0,
        "Latitude(deg)": -46.46507373536583,
        "Longitude(deg)": 131.70713151973052,
        "Mean Anomaly(deg)": 236.53217374554197,
        "RAAN(deg)": 14.994959410323089,
        "Satellite Name": "Test1 80",
        "Satellite Number": 80,
        "Semi-Major Axis(m)": 6980739.136638005,
        "Time(s)": 120
    },
    {
        "Altitude(m)": 620101.349051325,
        "Argument of Periapsis(deg)": 0.0013544629687285324,
        "Eccentricity": 0.0,
        "Inclination(deg)": 60.0,
        "Latitude(deg)": -46.8902338268321,
        "Longitude(deg)": 132.31874630213062,
        "Mean Anomaly(deg)": 237.15227989100384,
        "RAAN(deg)": 14.994539361183342,
        "Satellite Name": "Test1 80",
        "Satellite Number": 80,
        "Semi-Major Axis(m)": 6980739.136638005,
        "Time(s)": 130
    },
    {
        "Altitude(m)": 620272.6915016177,
        "Argument of Periapsis(deg)": 0.0014586524278614966,
        "Eccentricity": 0.0,
        "Inclination(deg)": 60.0,
        "Latitude(deg)": -47.311568543403084,
        "Longitude(deg)": 132.94069272566182,
        "Mean Anomaly(deg)": 237.77238603646566,
        "RAAN(deg)": 14.994119312043603,
        "Satellite Name": "Test1 80",
        "Satellite Number": 80,
        "Semi-Major Axis(m)": 6980739.136638005,
        "Time(s)": 140
    },
    {
        "Altitude(m)": 620441.9977035187,
        "Argument of Periapsis(deg)": 0.0015628418869944607,
        "Eccentricity": 0.0,
        "Inclination(deg)": 60.0,
        "Latitude(deg)": -47.72896218658754,
        "Longitude(deg)": 133.5731936883125,
        "Mean Anomaly(deg)": 238.3924921819275,
        "RAAN(deg)": 14.993699262903858,
        "Satellite Name": "Test1 80",
        "Satellite Number": 80,
        "Semi-Major Axis(m)": 6980739.136638005,
        "Time(s)": 150
    },
    {
        "Altitude(m)": 620609.2019348389,
        "Argument of Periapsis(deg)": 0.0016670313461274247,
        "Eccentricity": 0.0,
        "Inclination(deg)": 60.0,
        "Latitude(deg)": -48.14229562342714,
        "Longitude(deg)": 134.2164730373692,
        "Mean Anomaly(deg)": 239.0125983273893,
        "RAAN(deg)": 14.993279213764117,
        "Satellite Name": "Test1 80",
        "Satellite Number": 80,
        "Semi-Major Axis(m)": 6980739.136638005,
        "Time(s)": 160
    },
    {
        "Altitude(m)": 620774.2392424905,
        "Argument of Periapsis(deg)": 0.0017712208052603888,
        "Eccentricity": 0.0,
        "Inclination(deg)": 60.0,
        "Latitude(deg)": -48.55144622499488,
        "Longitude(deg)": 134.87075408597482,
        "Mean Anomaly(deg)": 239.63270447285115,
        "RAAN(deg)": 14.992859164624372,
        "Satellite Name": "Test1 80",
        "Satellite Number": 80,
        "Semi-Major Axis(m)": 6980739.136638005,
        "Time(s)": 170
    },
    {
        "Altitude(m)": 620937.0454705224,
        "Argument of Periapsis(deg)": 0.001875410264393353,
        "Eccentricity": 0.0,
        "Inclination(deg)": 60.0,
        "Latitude(deg)": -48.956287809974825,
        "Longitude(deg)": 135.53625959324563,
        "Mean Anomaly(deg)": 240.25281061831296,
        "RAAN(deg)": 14.99243911548463,
        "Satellite Name": "Test1 80",
        "Satellite Number": 80,
        "Semi-Major Axis(m)": 6980739.136638005,
        "Time(s)": 180
    },
    {
        "Altitude(m)": 621097.5572877339,
        "Argument of Periapsis(deg)": 0.0019795997235263173,
        "Eccentricity": 0.0,
        "Inclination(deg)": 60.0,
        "Latitude(deg)": -49.356690594176214,
        "Longitude(deg)": 136.2132116921727,
        "Mean Anomaly(deg)": 240.8729167637748,
        "RAAN(deg)": 14.992019066344888,
        "Satellite Name": "Test1 80",
        "Satellite Number": 80,
        "Semi-Major Axis(m)": 6980739.136638005,
        "Time(s)": 190
    }
]